HIMAWARI-8              
1 40267U 14060A   24078.77063222 -.00000290  00000+0  00000+0 0  9990
2 40267   0.0250 159.0367 0001173 172.0088 263.8351  1.00270835 34536
